ONEWEB-0349             
1 49281U 21090C   24153.47790997 -.00000177  00000+0 -46756-3 0  9990
2 49281  87.9224  62.8168 0001887  71.4451 288.6887 13.20769568131396
ONEWEB-0353             
1 49282U 21090D   24153.48477390  .00000133  00000+0  32493-3 0  9994
2 49282  87.8969  78.0742 0002169  86.0763 274.0614 13.14501351129617
ONEWEB-0356             
1 49283U 21090E   24153.47632604  .00000060  00000+0  11559-3 0  9994
2 49283  87.9221  62.8118 0001095  95.1789 264.9469 13.20769441131391
ONEWEB-0358             
1 49284U 21090F   24153.50630655  .00000051  00000+0  93549-4 0  9993
2 49284  87.9222  62.7923 0001242  82.3344 277.7930 13.20768670132125
ONEWEB-0359             
1 49285U 21090G   24153.50316867 -.00000096  00000+0 -26904-3 0  9991
2 49285  87.9221  62.8114 0002041  64.8602 295.2743 13.20769633132103
ONEWEB-0360             
1 49286U 21090H   24153.49370258  .00000020  00000+0  17770-4 0  9991
2 49286  87.9220  62.8181 0001963  75.8577 284.2774 13.20770941131411
ONEWEB-0361             
1 49287U 21090J   24153.47474913  .00000063  00000+0  12357-3 0  9995
2 49287  87.9221  62.8162 0001845  82.6178 277.5165 13.20770342131867
ONEWEB-0362             
1 49288U 21090K   24153.59489022 -.00000053  00000+0 -16433-3 0  9996
2 49288  87.9150  93.3628 0002421  78.1374 282.0030 13.19725745128575
